TEVEL2-2                
1 63219U 25052K   26068.64848259  .00020339  00000+0  69428-3 0  9991
2 63219  97.3987 324.7700 0004693 105.7930 254.3828 15.30343745 54855
STARLINK-35644          
1 66402U 25257Y   26068.64005810  .00011317  00000+0  39372-3 0  9994
2 66402  53.1577 217.4070 0000990  86.7928 273.3186 15.30192860 19710
